MAROC-TUBSAT            
1 27004U 01056D   26191.73369308 -.00000019  00000+0  31169-4 0  9997
2 27004  99.8095   9.0383 0020634  83.0792 344.3434 13.70263380229418
METEOSAT-10 (MSG-3)     
1 38552U 12035B   26191.85203899 -.00000003  00000+0  00000+0 0  9999
2 38552   4.7249  60.8996 0001106  18.7066 155.9604  1.00270027 51099
METEOR-M 2              
1 40069U 14037A   26191.79659541 -.00000298  00000+0 -11690-3 0  9999
2 40069  98.5126 166.6998 0005410 341.2029  18.8948 14.21467199622673
METEOSAT-11 (MSG-4)     
1 40732U 15034A   26191.85385902  .00000067  00000+0  00000+0 0  9999
2 40732   3.2589  70.9624 0002259 352.4897 181.9591  1.00270506  7450
METEOR-M2 2             
1 44387U 19038A   26191.84732993 -.00000136  00000+0 -39078-4 0  9993
2 44387  98.9159 179.4827 0000984  12.5438 347.5765 14.24371638364662
LUDI TANCE 1-01A (L-SA*)
1 51284U 22007A   26191.84501622  .00000341  00000+0  42639-4 0  9993
2 51284  97.8109 198.9289 0001594  91.3106 268.8294 14.88416167241991
LUDI TANCE 1-01B (L-SA*)
1 51822U 22018A   26191.87862002  .00000315  00000+0  39893-4 0  9997
2 51822  97.8108 198.9600 0001637  91.6776 268.4628 14.88410688237230
METEOR-M2 3             
1 57166U 23091A   26191.84711003 -.00000015  00000+0  12041-4 0  9991
2 57166  98.6070 246.3398 0005151 100.0265 260.1495 14.24048704157888
LUDI TANCE-4 01A        
1 57624U 23120A   26191.01421375 -.00000155  00000+0  00000+0 0  9994
2 57624  15.0900 193.4082 0001315  40.7671 148.2889  1.00276968 10777
METEOR-M2 4             
1 59051U 24039A   26191.88867611 -.00000006  00000+0  16936-4 0  9997
2 59051  98.7022 150.8903 0008227  99.4812 260.7296 14.22431905122635
